{
  "61201": {
    "noradId": "61201",
    "tle": [
      "1 61201C 24171B   26005.15951389 -.00029360  00000+0 -24178-3 0    53",
      "2 61201  53.1570 129.5804 0001234  58.8578 125.9577 15.69745105    13"
    ]
  },
  "61202": {
    "noradId": "61202",
    "tle": [
      "1 61202C 24171C   26005.15326389 -.00028018  00000+0 -23076-3 0    55",
      "2 61202  53.1571 129.5544 0001278  90.6408  86.5817 15.69741027    18"
    ]
  },
  "61203": {
    "noradId": "61203",
    "tle": [
      "1 61203C 24171D   26005.15673611 -.00028727  00000+0 -23641-3 0    54",
      "2 61203  53.1569 129.4802 0001089  99.8764 124.6519 15.69760561    15"
    ]
  },
  "61204": {
    "noradId": "61204",
    "tle": [
      "1 61204C 24171E   26005.15256944 -.00022718  00000+0 -18711-3 0    57",
      "2 61204  53.1565 129.4433 0001091  75.4728 153.2968 15.69735571    14"
    ]
  },
  "61205": {
    "noradId": "61205",
    "tle": [
      "1 61205C 24171F   26005.15326389 -.00029907  00000+0 -24633-3 0    56",
      "2 61205  53.1565 129.3256 0001045  85.2735 202.8989 15.69741663    16"
    ]
  },
  "61206": {
    "noradId": "61206",
    "tle": [
      "1 61206C 24171G   26005.15743056 -.00037275  00000+0 -30699-3 0    57",
      "2 61206  53.1569 129.2481 0001073  82.5950 256.8594 15.69751548    14"
    ]
  },
  "61207": {
    "noradId": "61207",
    "tle": [
      "1 61207C 24171H   26005.18243056 -.00027403  00000+0 -22570-3 0    57",
      "2 61207  53.1564 129.2391 0001141  68.3826 356.9651 15.69740048    19"
    ]
  },
  "61208": {
    "noradId": "61208",
    "tle": [
      "1 61208C 24171J   26005.15951389 -.00028246  00000+0 -23264-3 0    57",
      "2 61208  53.1572 129.1806 0001067  96.5913 282.3843 15.69741643    13"
    ]
  },
  "61209": {
    "noradId": "61209",
    "tle": [
      "1 61209C 24171K   26005.15534722 -.00038501  00000+0 -31707-3 0    52",
      "2 61209  53.1571 129.1443 0001205  66.4653 316.6828 15.69753511    12"
    ]
  },
  "61210": {
    "noradId": "61210",
    "tle": [
      "1 61210C 24171L   26005.15326389 -.00026079  00000+0 -21474-3 0    59",
      "2 61210  53.1572 129.8325 0001244  68.7797 329.7468 15.69744137    17"
    ]
  },
  "61211": {
    "noradId": "61211",
    "tle": [
      "1 61211C 24171M   26005.15743056 -.00023883  00000+0 -19671-3 0    50",
      "2 61211  53.1569 129.7548 0001135  76.1113  13.7272 15.69736539    14"
    ]
  },
  "61212": {
    "noradId": "61212",
    "tle": [
      "1 61212C 24171N   26005.15395833 -.00026589  00000+0 -21898-3 0    57",
      "2 61212  53.1566 129.7148 0000879  85.0764  12.8613 15.69741053    19"
    ]
  },
  "61213": {
    "noradId": "61213",
    "tle": [
      "1 61213C 24171P   26005.14493056 -.00013740  00000+0 -46297-3 0    58",
      "2 61213  53.1576 257.2592 0001412  88.3636 297.9999 15.30213148    19"
    ]
  },
  "61214": {
    "noradId": "61214",
    "tle": [
      "1 61214C 24171Q   26005.15048611 -.00016663  00000+0 -56151-3 0    50",
      "2 61214  53.1581 257.4273 0001338  88.0326 230.0726 15.30213761    11"
    ]
  },
  "61215": {
    "noradId": "61215",
    "tle": [
      "1 61215C 24171R   26005.14909722 -.00015531  00000+0 -52325-3 0    51",
      "2 61215  53.1577 257.2519 0001367  78.3016 325.1949 15.30218636    17"
    ]
  },
  "61216": {
    "noradId": "61216",
    "tle": [
      "1 61216C 24171S   26005.14770833 -.00009480  00000+0 -31923-3 0    58",
      "2 61216  53.1569 257.6926 0001273  75.1526  99.6011 15.30227045    19"
    ]
  },
  "61217": {
    "noradId": "61217",
    "tle": [
      "1 61217C 24171T   26005.14631944 -.00006822  00000+0 -22988-3 0    56",
      "2 61217  53.1578 257.5836 0001367  84.5456 140.7933 15.30206375    13"
    ]
  },
  "61218": {
    "noradId": "61218",
    "tle": [
      "1 61218C 24171U   26005.14423611 -.00011420  00000+0 -38484-3 0    55",
      "2 61218  53.1578 257.6168 0001372  71.7145 130.5148 15.30208105    10"
    ]
  },
  "61219": {
    "noradId": "61219",
    "tle": [
      "1 61219C 24171V   26005.14493056 -.00011145  00000+0 -37552-3 0    55",
      "2 61219  53.1567 257.8041 0001301 103.8209   3.3460 15.30212098    11"
    ]
  },
  "61243": {
    "noradId": "61243",
    "tle": [
      "1 61243C 24175A   26005.15812500 -.00022843  00000+0 -18813-3 0    52",
      "2 61243  53.1566   9.4819 0001289  75.3809  73.9808 15.69736273    12"
    ]
  },
  "61244": {
    "noradId": "61244",
    "tle": [
      "1 61244C 24175B   26005.15743056 -.00022454  00000+0 -18492-3 0    53",
      "2 61244  53.1564   9.4280 0001299  71.5466 101.6232 15.69736542    10"
    ]
  },
  "61245": {
    "noradId": "61245",
    "tle": [
      "1 61245C 24175C   26005.15673611 -.00026322  00000+0 -21679-3 0    52",
      "2 61245  53.1566   9.3246 0001409  69.5435 155.1714 15.69738614    11"
    ]
  },
  "61246": {
    "noradId": "61246",
    "tle": [
      "1 61246C 24175D   26005.15465278 -.00037645  00000+0 -30998-3 0    55",
      "2 61246  53.1565   9.3846 0001182  90.3598  94.8286 15.69755433    18"
    ]
  },
  "61247": {
    "noradId": "61247",
    "tle": [
      "1 61247C 24175E   26005.15951389 -.00027905  00000+0 -22985-3 0    54",
      "2 61247  53.1567   9.2459 0001194 108.1135 160.0554 15.69738778    15"
    ]
  },
  "61248": {
    "noradId": "61248",
    "tle": [
      "1 61248C 24175F   26005.15256944 -.00033768  00000+0 -27808-3 0    53",
      "2 61248  53.1566   9.2236 0001318  92.7909 163.8293 15.69749451    14"
    ]
  },
  "61249": {
    "noradId": "61249",
    "tle": [
      "1 61249C 24175G   26005.15673611 -.00033178  00000+0 -27324-3 0    56",
      "2 61249  53.1567   9.1459 0001288  90.2289 217.6912 15.69747897    10"
    ]
  },
  "61251": {
    "noradId": "61251",
    "tle": [
      "1 61251C 24175J   26005.15465278 -.00030203  00000+0 -24876-3 0    52",
      "2 61251  53.1567   9.7771 0001185  78.2775 272.7721 15.69742415    19"
    ]
  },
  "61252": {
    "noradId": "61252",
    "tle": [
      "1 61252C 24175K   26005.15812500 -.00030472  00000+0 -25097-3 0    51",
      "2 61252  53.1567   9.7021 0001014  86.5991 311.8140 15.69742895    13"
    ]
  },
  "61253": {
    "noradId": "61253",
    "tle": [
      "1 61253C 24175L   26005.15951389 -.00017899  00000+0 -14742-3 0    54",
      "2 61253  53.1570   9.6375 0001365  67.4905   6.5231 15.69730167    19"
    ]
  },
  "61254": {
    "noradId": "61254",
    "tle": [
      "1 61254C 24175M   26005.15743056 -.00036735  00000+0 -30254-3 0    51",
      "2 61254  53.1570   9.5907 0001179  86.7492   3.2126 15.69750497    13"
    ]
  },
  "61255": {
    "noradId": "61255",
    "tle": [
      "1 61255C 24175N   26005.15395833 -.00023557  00000+0 -19401-3 0    57",
      "2 61255  53.1569   9.5507 0001372  69.5244  28.5467 15.69737206    18"
    ]
  },
  "61256": {
    "noradId": "61256",
    "tle": [
      "1 61256C 24175P   26005.14909722 -.00007373  00000+0 -24845-3 0    51",
      "2 61256  53.1601 129.1824 0001216  80.8806 335.8807 15.30204233    13"
    ]
  },
  "61257": {
    "noradId": "61257",
    "tle": [
      "1 61257C 24175Q   26005.14631944 -.00006229  00000+0 -20989-3 0    54",
      "2 61257  53.1599 129.2307 0001370  78.0724 305.9297 15.30206327    13"
    ]
  },
  "61258": {
    "noradId": "61258",
    "tle": [
      "1 61258C 24175R   26005.14562500 -.00006210  00000+0 -20924-3 0    55",
      "2 61258  53.1597 129.2667 0001300  76.8938 285.8320 15.30206267    13"
    ]
  },
  "61259": {
    "noradId": "61259",
    "tle": [
      "1 61259C 24175S   26005.15118056 -.00048525  00000+0 -16333-2 0    53",
      "2 61259  53.1582 129.3258 0001032  76.4759 276.1071 15.30283133    17"
    ]
  },
  "61260": {
    "noradId": "61260",
    "tle": [
      "1 61260C 24175T   26005.14979167 -.00005649  00000+0 -19037-3 0    57",
      "2 61260  53.1598 129.1086 0001206  85.9664   9.5250 15.30202839    17"
    ]
  },
  "61261": {
    "noradId": "61261",
    "tle": [
      "1 61261C 24175U   26005.15048611 -.00003997  00000+0 -13470-3 0    59",
      "2 61261  53.1601 129.1400 0001299  84.1656 357.7059 15.30200289    19"
    ]
  },
  "61262": {
    "noradId": "61262",
    "tle": [
      "1 61262C 24175V   26005.14493056  .00000913  00000+0  30773-4 0    55",
      "2 61262  53.1590 129.3179 0001199  81.3842 254.2359 15.30201114    19"
    ]
  },
  "61509": {
    "noradId": "61509",
    "tle": [
      "1 61509C 24183A   26005.14562500 -.00004830  00000+0 -16275-3 0    53",
      "2 61509  53.1589  64.8024 0001368  84.3153 282.5000 15.30202803    12"
    ]
  },
  "61510": {
    "noradId": "61510",
    "tle": [
      "1 61510C 24183B   26005.14979167 -.00014525  00000+0 -48940-3 0    52",
      "2 61510  53.1575  77.6505 0001211  97.5302 254.2807 15.30216438    14"
    ]
  },
  "61511": {
    "noradId": "61511",
    "tle": [
      "1 61511C 24183C   26005.15048611 -.00016509  00000+0 -55632-3 0    55",
      "2 61511  53.1589  77.4612 0001160  87.0385   1.6720 15.30214332    14"
    ]
  },
  "61512": {
    "noradId": "61512",
    "tle": [
      "1 61512C 24183D   26005.14979167 -.00011712  00000+0 -39465-3 0    51",
      "2 61512  53.1585  64.7381 0001521  79.8353 333.2064 15.30209515    10"
    ]
  },
  "61513": {
    "noradId": "61513",
    "tle": [
      "1 61513C 24183E   26005.14979167 -.00014637  00000+0 -49317-3 0    58",
      "2 61513  53.1571  77.7187 0001226  87.5008 229.4141 15.30216549    16"
    ]
  },
  "61514": {
    "noradId": "61514",
    "tle": [
      "1 61514C 24183F   26005.15256944 -.00020170  00000+0 -67956-3 0    59",
      "2 61514  53.1579  77.5554 0001107  88.7000 313.3283 15.30223031    18"
    ]
  },
  "61515": {
    "noradId": "61515",
    "tle": [
      "1 61515C 24183G   26005.14840278 -.00019290  00000+0 -64985-3 0    58",
      "2 61515  53.1572  77.8270 0001114  82.5531 174.3410 15.30225639    12"
    ]
  }
}